[
    {
        "CCSDS_OMM_VERS": "3.0",
        "COMMENT": "GENERATED VIA SPACE-TRACK.ORG API",
        "CREATION_DATE": "2025-04-27T02:38:33",
        "ORIGINATOR": "18 SPCS",
        "OBJECT_NAME": "QZS-2",
        "OBJECT_ID": "2017-028A",
        "CENTER_NAME": "EARTH",
        "REF_FRAME": "TEME",
        "TIME_SYSTEM": "UTC",
        "MEAN_ELEMENT_THEORY": "SGP4",
        "EPOCH": "2025-04-26T05:06:38.693376",
        "MEAN_MOTION": "1.00248853",
        "ECCENTRICITY": "0.07398230",
        "INCLINATION": "40.0762",
        "RA_OF_ASC_NODE": "249.2347",
        "ARG_OF_PERICENTER": "270.7476",
        "MEAN_ANOMALY": "269.1429",
        "EPHEMERIS_TYPE": "0",
        "CLASSIFICATION_TYPE": "U",
        "NORAD_CAT_ID": "42738",
        "ELEMENT_SET_NO": "999",
        "REV_AT_EPOCH": "344",
        "BSTAR": "0.00000000000000",
        "MEAN_MOTION_DOT": "-0.00000217",
        "MEAN_MOTION_DDOT": "0.0000000000000",
        "SEMIMAJOR_AXIS": "42171.162",
        "PERIOD": "1436.425",
        "APOAPSIS": "38912.946",
        "PERIAPSIS": "32673.107",
        "OBJECT_TYPE": "PAYLOAD",
        "RCS_SIZE": "LARGE",
        "COUNTRY_CODE": "JPN",
        "LAUNCH_DATE": "2017-06-01",
        "SITE": "TNSTA",
        "DECAY_DATE": null,
        "FILE": "4713460",
        "GP_ID": "286417878",
        "TLE_LINE0": "0 QZS-2",
        "TLE_LINE1": "1 42738U 17028A   25116.21294784 -.00000217  00000-0  00000-0 0  9995",
        "TLE_LINE2": "2 42738  40.0762 249.2347 0739823 270.7476 269.1429  1.00248853  3446"
    }
]